GLOBALSTAR M063         
1 26081U 00008A   24158.35067203 -.00000017  00000+0  96505-3 0  9997
2 26081  51.9978  21.3774 0004209 323.1576 208.4227 11.86156162112976
GLOBALSTAR M062         
1 26082U 00008B   24158.16132409 -.00000078  00000+0  14805-3 0  9998
2 26082  51.9832 121.5342 0007372  28.7859 344.3175 12.43437588449845
GLOBALSTAR M060         
1 26083U 00008C   24158.37420112  .00000054  00000+0  14434-2 0  9993
2 26083  52.0047  27.7493 0004054  77.9944  93.0830 12.17634966106582
GLOBALSTAR M064         
1 26084U 00008D   24158.21637903 -.00000098  00000+0 -21717-3 0  9998
2 26084  52.0010 124.9910 0001633  42.4294 317.6665 11.88519798122392
GLOBALSTAR M065         
1 31571U 07020A   24158.64136346 -.00000105  00000+0 -74959-5 0  9995
2 31571  51.9906 289.2732 0010151 192.8259 180.2276 12.61971313785994
GLOBALSTAR M069         
1 31573U 07020C   24158.55896976 -.00000047  00000+0  31808-3 0  9997
2 31573  51.9946 245.3645 0000703 173.0655 199.8069 12.62274800787119
GLOBALSTAR M072         
1 31574U 07020D   24158.27282078 -.00000042  00000+0  34296-3 0  9998
2 31574  52.0104 342.1627 0001086 103.8874  67.6333 12.62272944785349
GLOBALSTAR M071         
1 31576U 07020F   24158.50633845 -.00000037  00000+0  37065-3 0  9999
2 31576  52.0062 250.6826 0000424 121.4657 251.3658 12.62267737448294
